0 IRIDIUM 33 DEB
1 36489U 97051WF  13265.41391273  .00005570  00000-0  16552-2 0  1168
2 36489 086.4328 145.3910 0025096 008.9427 357.0909 14.42903624229245
0 IRIDIUM 33 DEB
1 36489U 97051WF  13268.41845201  .00006861  00000-0  20377-2 0  1171
2 36489 086.4380 144.1354 0025887 358.5986 124.6195 14.42943536229672
0 IRIDIUM 33 DEB
1 36489U 97051WF  13270.42899457  .00006642  00000-0  19725-2 0  1180
2 36489 086.4314 143.2865 0024618 354.0312 126.5748 14.42963351229954
0 IRIDIUM 33 DEB
1 36489U 97051WF  13272.43957242  .00007014  00000-0  20825-2 0  1198
2 36489 086.4311 142.4422 0024237 347.9333 130.3962 14.42983934230246
0 IRIDIUM 33 DEB
1 36489U 97051WF  13276.78543462  .00005877  00000-0  17495-2 0  1212
2 36489 086.4322 140.6174 0024372 332.4703 027.5690 14.43039421221252
